{
  "norad_id": 62867,
  "name": "STARLINK-32846",
  "history": [
    {
      "epoch": "2026-03-28T13:55:16.910112Z",
      "apogee_km": 476.3234212669895,
      "perigee_km": 474.04537723387784,
      "latitude_deg": 6.595701659259812e-05,
      "longitude_deg": 6.940324437320783,
      "height_km": 476.07600781384855,
      "semi_major_axis_km": 6853.321399250433,
      "eccentricity": 0.0001662,
      "inclination_deg": 53.1607,
      "raan_deg": 41.7592,
      "arg_perigee_deg": 89.6988,
      "mean_anomaly_deg": 270.4204,
      "mean_motion_rev_day": 15.30210272
    },
    {
      "epoch": "2026-03-29T04:01:45.505056Z",
      "apogee_km": 476.0723223838713,
      "perigee_km": 474.3110169157708,
      "latitude_deg": 4.2580625221943366e-05,
      "longitude_deg": 152.01146871028362,
      "height_km": 475.90002362333007,
      "semi_major_axis_km": 6853.328669649821,
      "eccentricity": 0.0001285,
      "inclination_deg": 53.1606,
      "raan_deg": 39.0289,
      "arg_perigee_deg": 77.5534,
      "mean_anomaly_deg": 282.5611,
      "mean_motion_rev_day": 15.30207837
    },
    {
      "epoch": "2026-03-30T03:32:33.477216Z",
      "apogee_km": 475.99341274788003,
      "perigee_km": 474.482928860235,
      "latitude_deg": 5.639237367427998e-06,
      "longitude_deg": 153.79599981233974,
      "height_km": 475.9476289310061,
      "semi_major_axis_km": 6853.375170804057,
      "eccentricity": 0.0001102,
      "inclination_deg": 53.1595,
      "raan_deg": 34.479,
      "arg_perigee_deg": 75.5203,
      "mean_anomaly_deg": 284.592,
      "mean_motion_rev_day": 15.30192263
    },
    {
      "epoch": "2026-03-30T05:06:36.723456Z",
      "apogee_km": 475.9510848777809,
      "perigee_km": 474.52448638240367,
      "latitude_deg": -4.280430880255986e-05,
      "longitude_deg": 129.91456004821092,
      "height_km": 475.9934886183959,
      "semi_major_axis_km": 6853.3747856300915,
      "eccentricity": 0.00010408,
      "inclination_deg": 53.1596,
      "raan_deg": 34.1755,
      "arg_perigee_deg": 78.4619,
      "mean_anomaly_deg": 281.6498,
      "mean_motion_rev_day": 15.30192392
    }
  ]
}